UNKNOWN                 
1 81779U          26071.39117640  .00002222  00000+0  15337+0 0  9994
2 81779  54.5036  75.7498 1442005 131.6877 241.6617  9.33715242488694
UNKNOWN                 
1 81792U          26070.21276321  .00001749  00000+0  63381-3 0  9990
2 81792  65.8284 256.9918 0894838 243.3934 107.2759 13.11345786 91639
UNKNOWN                 
1 81812U          26072.25647346  .00008069  00000+0  53446-1 0  9999
2 81812 103.8010   0.5525 0295402  75.2801 288.0795 12.38286715551763
UNKNOWN                 
1 81816U          26071.99071917  .00000694  00000+0  55985-3 0  9996
2 81816  66.2372  71.0645 0172286 197.0499 162.4743 13.89758331621880
UNKNOWN                 
1 81819U          26072.50025958  .00000866  00000+0  61584-2 0  9993
2 81819 102.1688 175.9365 0032530 297.9406  61.8369 12.47859495559333
UNKNOWN                 
1 81824U          26071.46955217  .00004733  00000+0  16181-2 0  9993
2 81824  65.8421  92.0941 0049518 289.9683  69.6082 14.36493328637479
UNKNOWN                 
1 81833U          26071.75344719  .00000166  00000+0  57360-3 0  9995
2 81833  90.2477   4.8902 0026818 143.0458 217.2515 12.93766222464150
UNKNOWN                 
1 81838U          26065.93198117  .00008849  00000+0  19027-2 0  9995
2 81838  67.7611  45.9900 0044901 288.9362 100.9660 14.58249515645608
UNKNOWN                 
1 81844U          26070.35228857  .00010009  00000+0  35067-2 0  9992
2 81844  82.9126 209.8735 0060714 239.5881 119.9299 14.33972197635586
UNKNOWN                 
1 81845U          26072.47399866  .00002611  00000+0  28698-3 0  9990
2 81845  97.6784 261.2619 0086953   7.2494  22.9785 14.85741865662997
UNKNOWN                 
1 81864U          26066.44840827  .00001157  00000+0  45930-3 0  9991
2 81864  65.6676 228.8005 0768452 336.6253  20.1508 13.32766957562121
UNKNOWN                 
1 81865U          26072.02040691  .00001197  00000+0  97257-3 0  9997
2 81865  82.8057 318.9765 0062551 106.2627 319.2298 13.88284093621078
