CCSDS_OMM_VERS = 2.0
CREATION_DATE  = 
ORIGINATOR     = 

OBJECT_NAME    = UNKNOWN
OBJECT_ID      = 
CENTER_NAME    = EARTH
REF_FRAME      = TEME
TIME_SYSTEM    = UTC
MEAN_ELEMENT_THEORY = SGP/SGP4

EPOCH          = 2026-03-12T09:23:17.640960
MEAN_MOTION    = 9.33715242
ECCENTRICITY   = .1442005
INCLINATION    = 54.5036
RA_OF_ASC_NODE = 75.7498
ARG_OF_PERICENTER = 131.6877
MEAN_ANOMALY   = 241.6617

EPHEMERIS_TYPE = 0
CLASSIFICATION_TYPE = U
NORAD_CAT_ID   = 81779
ELEMENT_SET_NO = 999
REV_AT_EPOCH   = 48869
BSTAR          = .15337E+0
MEAN_MOTION_DOT = .2222E-4
MEAN_MOTION_DDOT = 0

CCSDS_OMM_VERS = 2.0
CREATION_DATE  = 
ORIGINATOR     = 

OBJECT_NAME    = UNKNOWN
OBJECT_ID      = 
CENTER_NAME    = EARTH
REF_FRAME      = TEME
TIME_SYSTEM    = UTC
MEAN_ELEMENT_THEORY = SGP/SGP4

EPOCH          = 2026-03-11T05:06:22.741344
MEAN_MOTION    = 13.11345786
ECCENTRICITY   = .0894838
INCLINATION    = 65.8284
RA_OF_ASC_NODE = 256.9918
ARG_OF_PERICENTER = 243.3934
MEAN_ANOMALY   = 107.2759

EPHEMERIS_TYPE = 0
CLASSIFICATION_TYPE = U
NORAD_CAT_ID   = 81792
ELEMENT_SET_NO = 999
REV_AT_EPOCH   = 9163
BSTAR          = .63381E-3
MEAN_MOTION_DOT = .1749E-4
MEAN_MOTION_DDOT = 0

CCSDS_OMM_VERS = 2.0
CREATION_DATE  = 
ORIGINATOR     = 

OBJECT_NAME    = UNKNOWN
OBJECT_ID      = 
CENTER_NAME    = EARTH
REF_FRAME      = TEME
TIME_SYSTEM    = UTC
MEAN_ELEMENT_THEORY = SGP/SGP4

EPOCH          = 2026-03-13T06:09:19.306944
MEAN_MOTION    = 12.38286715
ECCENTRICITY   = .0295402
INCLINATION    = 103.8010
RA_OF_ASC_NODE = 0.5525
ARG_OF_PERICENTER = 75.2801
MEAN_ANOMALY   = 288.0795

EPHEMERIS_TYPE = 0
CLASSIFICATION_TYPE = U
NORAD_CAT_ID   = 81812
ELEMENT_SET_NO = 999
REV_AT_EPOCH   = 55176
BSTAR          = .53446E-1
MEAN_MOTION_DOT = .8069E-4
MEAN_MOTION_DDOT = 0

CCSDS_OMM_VERS = 2.0
CREATION_DATE  = 
ORIGINATOR     = 

OBJECT_NAME    = UNKNOWN
OBJECT_ID      = 
CENTER_NAME    = EARTH
REF_FRAME      = TEME
TIME_SYSTEM    = UTC
MEAN_ELEMENT_THEORY = SGP/SGP4

EPOCH          = 2026-03-12T23:46:38.136288
MEAN_MOTION    = 13.89758331
ECCENTRICITY   = .0172286
INCLINATION    = 66.2372
RA_OF_ASC_NODE = 71.0645
ARG_OF_PERICENTER = 197.0499
MEAN_ANOMALY   = 162.4743

EPHEMERIS_TYPE = 0
CLASSIFICATION_TYPE = U
NORAD_CAT_ID   = 81816
ELEMENT_SET_NO = 999
REV_AT_EPOCH   = 62188
BSTAR          = .55985E-3
MEAN_MOTION_DOT = .694E-5
MEAN_MOTION_DDOT = 0

CCSDS_OMM_VERS = 2.0
CREATION_DATE  = 
ORIGINATOR     = 

OBJECT_NAME    = UNKNOWN
OBJECT_ID      = 
CENTER_NAME    = EARTH
REF_FRAME      = TEME
TIME_SYSTEM    = UTC
MEAN_ELEMENT_THEORY = SGP/SGP4

EPOCH          = 2026-03-13T12:00:22.427712
MEAN_MOTION    = 12.47859495
ECCENTRICITY   = .003253
INCLINATION    = 102.1688
RA_OF_ASC_NODE = 175.9365
ARG_OF_PERICENTER = 297.9406
MEAN_ANOMALY   = 61.8369

EPHEMERIS_TYPE = 0
CLASSIFICATION_TYPE = U
NORAD_CAT_ID   = 81819
ELEMENT_SET_NO = 999
REV_AT_EPOCH   = 55933
BSTAR          = .61584E-2
MEAN_MOTION_DOT = .866E-5
MEAN_MOTION_DDOT = 0

CCSDS_OMM_VERS = 2.0
CREATION_DATE  = 
ORIGINATOR     = 

OBJECT_NAME    = UNKNOWN
OBJECT_ID      = 
CENTER_NAME    = EARTH
REF_FRAME      = TEME
TIME_SYSTEM    = UTC
MEAN_ELEMENT_THEORY = SGP/SGP4

EPOCH          = 2026-03-12T11:16:09.307488
MEAN_MOTION    = 14.36493328
ECCENTRICITY   = .0049518
INCLINATION    = 65.8421
RA_OF_ASC_NODE = 92.0941
ARG_OF_PERICENTER = 289.9683
MEAN_ANOMALY   = 69.6082

EPHEMERIS_TYPE = 0
CLASSIFICATION_TYPE = U
NORAD_CAT_ID   = 81824
ELEMENT_SET_NO = 999
REV_AT_EPOCH   = 63747
BSTAR          = .16181E-2
MEAN_MOTION_DOT = .4733E-4
MEAN_MOTION_DDOT = 0

CCSDS_OMM_VERS = 2.0
CREATION_DATE  = 
ORIGINATOR     = 

OBJECT_NAME    = UNKNOWN
OBJECT_ID      = 
CENTER_NAME    = EARTH
REF_FRAME      = TEME
TIME_SYSTEM    = UTC
MEAN_ELEMENT_THEORY = SGP/SGP4

EPOCH          = 2026-03-12T18:04:57.837216
MEAN_MOTION    = 12.93766222
ECCENTRICITY   = .0026818
INCLINATION    = 90.2477
RA_OF_ASC_NODE = 4.8902
ARG_OF_PERICENTER = 143.0458
MEAN_ANOMALY   = 217.2515

EPHEMERIS_TYPE = 0
CLASSIFICATION_TYPE = U
NORAD_CAT_ID   = 81833
ELEMENT_SET_NO = 999
REV_AT_EPOCH   = 46415
BSTAR          = .5736E-3
MEAN_MOTION_DOT = .166E-5
MEAN_MOTION_DDOT = 0

CCSDS_OMM_VERS = 2.0
CREATION_DATE  = 
ORIGINATOR     = 

OBJECT_NAME    = UNKNOWN
OBJECT_ID      = 
CENTER_NAME    = EARTH
REF_FRAME      = TEME
TIME_SYSTEM    = UTC
MEAN_ELEMENT_THEORY = SGP/SGP4

EPOCH          = 2026-03-06T22:22:03.173088
MEAN_MOTION    = 14.58249515
ECCENTRICITY   = .0044901
INCLINATION    = 67.7611
RA_OF_ASC_NODE = 45.9900
ARG_OF_PERICENTER = 288.9362
MEAN_ANOMALY   = 100.9660

EPHEMERIS_TYPE = 0
CLASSIFICATION_TYPE = U
NORAD_CAT_ID   = 81838
ELEMENT_SET_NO = 999
REV_AT_EPOCH   = 64560
BSTAR          = .19027E-2
MEAN_MOTION_DOT = .8849E-4
MEAN_MOTION_DDOT = 0

CCSDS_OMM_VERS = 2.0
CREATION_DATE  = 
ORIGINATOR     = 

OBJECT_NAME    = UNKNOWN
OBJECT_ID      = 
CENTER_NAME    = EARTH
REF_FRAME      = TEME
TIME_SYSTEM    = UTC
MEAN_ELEMENT_THEORY = SGP/SGP4

EPOCH          = 2026-03-11T08:27:17.732448
MEAN_MOTION    = 14.33972197
ECCENTRICITY   = .0060714
INCLINATION    = 82.9126
RA_OF_ASC_NODE = 209.8735
ARG_OF_PERICENTER = 239.5881
MEAN_ANOMALY   = 119.9299

EPHEMERIS_TYPE = 0
CLASSIFICATION_TYPE = U
NORAD_CAT_ID   = 81844
ELEMENT_SET_NO = 999
REV_AT_EPOCH   = 63558
BSTAR          = .35067E-2
MEAN_MOTION_DOT = .10009E-3
MEAN_MOTION_DDOT = 0

CCSDS_OMM_VERS = 2.0
CREATION_DATE  = 
ORIGINATOR     = 

OBJECT_NAME    = UNKNOWN
OBJECT_ID      = 
CENTER_NAME    = EARTH
REF_FRAME      = TEME
TIME_SYSTEM    = UTC
MEAN_ELEMENT_THEORY = SGP/SGP4

EPOCH          = 2026-03-13T11:22:33.484224
MEAN_MOTION    = 14.85741865
ECCENTRICITY   = .0086953
INCLINATION    = 97.6784
RA_OF_ASC_NODE = 261.2619
ARG_OF_PERICENTER = 7.2494
MEAN_ANOMALY   = 22.9785

EPHEMERIS_TYPE = 0
CLASSIFICATION_TYPE = U
NORAD_CAT_ID   = 81845
ELEMENT_SET_NO = 999
REV_AT_EPOCH   = 66299
BSTAR          = .28698E-3
MEAN_MOTION_DOT = .2611E-4
MEAN_MOTION_DDOT = 0

CCSDS_OMM_VERS = 2.0
CREATION_DATE  = 
ORIGINATOR     = 

OBJECT_NAME    = UNKNOWN
OBJECT_ID      = 
CENTER_NAME    = EARTH
REF_FRAME      = TEME
TIME_SYSTEM    = UTC
MEAN_ELEMENT_THEORY = SGP/SGP4

EPOCH          = 2026-03-07T10:45:42.474528
MEAN_MOTION    = 13.32766957
ECCENTRICITY   = .0768452
INCLINATION    = 65.6676
RA_OF_ASC_NODE = 228.8005
ARG_OF_PERICENTER = 336.6253
MEAN_ANOMALY   = 20.1508

EPHEMERIS_TYPE = 0
CLASSIFICATION_TYPE = U
NORAD_CAT_ID   = 81864
ELEMENT_SET_NO = 999
REV_AT_EPOCH   = 56212
BSTAR          = .4593E-3
MEAN_MOTION_DOT = .1157E-4
MEAN_MOTION_DDOT = 0

CCSDS_OMM_VERS = 2.0
CREATION_DATE  = 
ORIGINATOR     = 

OBJECT_NAME    = UNKNOWN
OBJECT_ID      = 
CENTER_NAME    = EARTH
REF_FRAME      = TEME
TIME_SYSTEM    = UTC
MEAN_ELEMENT_THEORY = SGP/SGP4

EPOCH          = 2026-03-13T00:29:23.157024
MEAN_MOTION    = 13.88284093
ECCENTRICITY   = .0062551
INCLINATION    = 82.8057
RA_OF_ASC_NODE = 318.9765
ARG_OF_PERICENTER = 106.2627
MEAN_ANOMALY   = 319.2298

EPHEMERIS_TYPE = 0
CLASSIFICATION_TYPE = U
NORAD_CAT_ID   = 81865
ELEMENT_SET_NO = 999
REV_AT_EPOCH   = 62107
BSTAR          = .97257E-3
MEAN_MOTION_DOT = .1197E-4
MEAN_MOTION_DDOT = 0

